IONOSFERA-M 2           
1 61736U 24199B   26199.94494277  .00000003  00000+0  20791-4 0  9996
2 61736  98.7129  72.6861 0000640 129.5963 230.5271 14.22762929135346
PRSC-EO1                
1 62725U 25012A   26199.97125557  .00003307  00000+0  16756-3 0  9990
2 62725  97.4210 271.8074 0007034 135.8159 224.3637 15.17647455 83016
BIOMASS                 
1 63772U 25090A   26199.80914858  .00000217  00000+0  46686-4 0  9994
2 63772  98.0750  26.6638 0001445  91.7334 268.4037 14.67534427 65327
GOSAT-GW (IBUKI GW)     
1 64694U 25141A   26199.96270929 -.00000112  00000+0 -11379-4 0  9993
2 64694  98.0564 136.7636 0001359  84.6735 275.4624 14.67554270 56503
IONOSFERA-M 3           
1 64876U 25155A   26199.99108613  .00000013  00000+0  25316-4 0  9997
2 64876  98.6043 161.0988 0002382 106.8097 253.3342 14.21491190 50922
IONOSFERA-M 4           
1 64877U 25155B   26199.95548444  .00000018  00000+0  27635-4 0  9995
2 64877  98.6042 160.9811 0001875  95.9000 264.2392 14.21493658 50919
MICROCARB               
1 64899U 25156A   26199.81134761  .00000249  00000+0  46665-4 0  9998
2 64899  98.0073 276.4626 0017914 159.4624 200.7307 14.72887420 52628
CO3D 3                  
1 64900U 25156B   26199.91421915  .00002082  00000+0  99243-4 0  9999
2 64900  97.4332 278.1515 0001760  93.6206 266.5230 15.20208294 54352
CO3D 4                  
1 64901U 25156C   26199.91437131  .00000914  00000+0  45337-4 0  9994
2 64901  97.4336 278.1512 0001887 148.0583 212.0767 15.20207665 54359
CO3D 2                  
1 64902U 25156D   26199.94684253  .00002089  00000+0  99565-4 0  9994
2 64902  97.4331 278.0823 0001183  92.7176 267.4195 15.20210067 54350
CO3D 1                  
1 64903U 25156E   26199.88117589  .00002139  00000+0  10190-3 0  9993
2 64903  97.4331 278.0176 0001302 101.1580 258.9802 15.20195289 54346
PRSC-S1                 
1 65055U 25164A   26199.95167395  .00002428  00000+0  17254-3 0  9998
2 65055  41.1302 108.8829 0007263 220.9036 139.1234 15.06653859 53223
SENTINEL-6B             
1 66514U 25264A   26199.94081183 -.00000054  00000+0  31520-4 0  9996
2 66514  66.0411  69.2268 0007837 268.5246  91.4871 12.80930236 31236
CAS500-3                
1 66655U 25274F   26199.81312437  .00000587  00000+0  69200-4 0  9994
2 66655  97.7433 127.1449 0005989  27.9355 332.2183 14.88388465 34850
CSG-3                   
1 67304U 26001A   26199.79398854  .00000095  00000+0  18443-4 0  9996
2 67304  97.8898  22.9393 0001538  92.9833 267.1556 14.82153224 29140
PRSC-E03                
1 68835U 26092A   26199.86614668  .00000986  00000+0  72175-4 0  9999
2 68835  38.0007 262.8551 0005052 273.8308  86.1876 15.06817747 12737
CAS500-2                
1 69013U 26100AK  26199.47377493  .00002990  00000+0  14295-3 0  9992
2 69013  97.3853  96.7292 0007981 239.6975 120.3470 15.19745977 11562
