OBJECT_NAME,OBJECT_ID,EPOCH,MEAN_MOTION,ECCENTRICITY,INCLINATION,RA_OF_ASC_NODE,ARG_OF_PERICENTER,MEAN_ANOMALY,EPHEMERIS_TYPE,CLASSIFICATION_TYPE,NORAD_CAT_ID,ELEMENT_SET_NO,REV_AT_EPOCH,BSTAR,MEAN_MOTION_DOT,MEAN_MOTION_DDOT
IONOSFERA-M 2,2024-199B,2026-07-18T22:40:43.055328,14.22762929,.00006407,98.7129,72.6861,129.5963,230.5271,0,U,61736,999,13534,.20791063E-4,.3E-7,0
PRSC-EO1,2025-012A,2026-07-18T23:18:36.481248,15.17647455,.00070343,97.4210,271.8074,135.8159,224.3637,0,U,62725,999,8301,.16755764E-3,.3307E-4,0
BIOMASS,2025-090A,2026-07-18T19:25:10.437312,14.67534427,.00014455,98.0750,26.6638,91.7334,268.4037,0,U,63772,999,6532,.46685812E-4,.217E-5,0
GOSAT-GW (IBUKI GW),2025-141A,2026-07-18T23:06:18.082656,14.67554270,.00013592,98.0564,136.7636,84.6735,275.4624,0,U,64694,999,5650,-.11379049E-4,-.112E-5,0
IONOSFERA-M 3,2025-155A,2026-07-18T23:47:09.841632,14.21491190,.00023822,98.6043,161.0988,106.8097,253.3342,0,U,64876,999,5092,.25316299E-4,.13E-6,0
IONOSFERA-M 4,2025-155B,2026-07-18T22:55:53.855616,14.21493658,.00018755,98.6042,160.9811,95.9000,264.2392,0,U,64877,999,5091,.27635292E-4,.18E-6,0
MICROCARB,2025-156A,2026-07-18T19:28:20.433504,14.72887420,.00179143,98.0073,276.4626,159.4624,200.7307,0,U,64899,999,5262,.46665288E-4,.249E-5,0
CO3D 3,2025-156B,2026-07-18T21:56:28.534560,15.20208294,.00017603,97.4332,278.1515,93.6206,266.5230,0,U,64900,999,5435,.9924331E-4,.2082E-4,0
CO3D 4,2025-156C,2026-07-18T21:56:41.681184,15.20207665,.00018873,97.4336,278.1512,148.0583,212.0767,0,U,64901,999,5435,.45337483E-4,.914E-5,0
CO3D 2,2025-156D,2026-07-18T22:43:27.194592,15.20210067,.00011833,97.4331,278.0823,92.7176,267.4195,0,U,64902,999,5435,.99565423E-4,.2089E-4,0
CO3D 1,2025-156E,2026-07-18T21:08:53.596896,15.20195289,.00013027,97.4331,278.0176,101.1580,258.9802,0,U,64903,999,5434,.10190002E-3,.2139E-4,0
PRSC-S1,2025-164A,2026-07-18T22:50:24.629280,15.06653859,.00072639,41.1302,108.8829,220.9036,139.1234,0,U,65055,999,5322,.17254152E-3,.2428E-4,0
SENTINEL-6B,2025-264A,2026-07-18T22:34:46.142112,12.80930236,.00078377,66.0411,69.2268,268.5246,91.4871,0,U,66514,999,3123,.31520223E-4,-.54E-6,0
CAS500-3,2025-274F,2026-07-18T19:30:53.945568,14.88388465,.00059898,97.7433,127.1449,27.9355,332.2183,0,U,66655,999,3485,.69200084E-4,.587E-5,0
CSG-3,2026-001A,2026-07-18T19:03:20.609856,14.82153224,.00015387,97.8898,22.9393,92.9833,267.1556,0,U,67304,999,2914,.18443267E-4,.95E-6,0
PRSC-E03,2026-092A,2026-07-18T20:47:15.073152,15.06817747,.00050522,38.0007,262.8551,273.8308,86.1876,0,U,68835,999,1273,.72174848E-4,.986E-5,0
CAS500-2,2026-100AK,2026-07-18T11:22:14.153952,15.19745977,.00079811,97.3853,96.7292,239.6975,120.3470,0,U,69013,999,1156,.14294841E-3,.299E-4,0
